{
  "type": "FeatureCollection",
  "features": [
    {
      "type": "Feature",
      "properties": {
        "norad_id": 65731,
        "name": "1998-067XK",
        "group": "stations",
        "lat": 5.939720740325958,
        "lon": 82.66736206649726,
        "alt_km": 362.6346223118053,
        "timestamp": "2025-12-24T09:46:29.749565+00:00",
        "meta_object_name": "1998-067XK",
        "meta_object_id": "1998-067XK",
        "meta_epoch": "2025-12-23T06:12:26.032896",
        "meta_mean_motion": 15.67713225,
        "meta_eccentricity": 0.00049619,
        "meta_inclination": 51.6292,
        "meta_ra_of_asc_node": 83.7873,
        "meta_arg_of_pericenter": 312.0823,
        "meta_mean_anomaly": 47.9751,
        "meta_ephemeris_type": 0,
        "meta_classification_type": "U",
        "meta_norad_cat_id": 65731,
        "meta_element_set_no": 999,
        "meta_rev_at_epoch": 1479,
        "meta_bstar": 0.00091991075,
        "meta_mean_motion_dot": 0.00103596,
        "meta_mean_motion_ddot": 0,
        "tle_line1": "1 65731U 98067XK  25357.25863464  .00103596  00000+0  91991-3 0  9997",
        "tle_line2": "2 65731  51.6292  83.7873 0004961 312.0823  47.9751 15.67713225 14797"
      },
      "geometry": {
        "type": "Point",
        "coordinates": [
          82.66736206649726,
          5.939720740325958
        ]
      }
    },
    {
      "type": "Feature",
      "properties": {
        "norad_id": 65732,
        "name": "RSP-03",
        "group": "stations",
        "lat": 44.411875152494666,
        "lon": -153.9760221223129,
        "alt_km": 351.7779655112372,
        "timestamp": "2025-12-24T09:46:29.749577+00:00",
        "meta_object_name": "RSP-03",
        "meta_object_id": "1998-067XL",
        "meta_epoch": "2025-12-24T03:10:33.733632",
        "meta_mean_motion": 15.71515492,
        "meta_eccentricity": 0.0005957,
        "meta_inclination": 51.6261,
        "meta_ra_of_asc_node": 78.3569,
        "meta_arg_of_pericenter": 324.1964,
        "meta_mean_anomaly": 35.8634,
        "meta_ephemeris_type": 0,
        "meta_classification_type": "U",
        "meta_norad_cat_id": 65732,
        "meta_element_set_no": 999,
        "meta_rev_at_epoch": 1495,
        "meta_bstar": 0.0010972,
        "meta_mean_motion_dot": 0.00145625,
        "meta_mean_motion_ddot": 0,
        "tle_line1": "1 65732U 98067XL  25358.13233488  .00145625  00000+0  10972-2 0  9991",
        "tle_line2": "2 65732  51.6261  78.3569 0005957 324.1964  35.8634 15.71515492 14957"
      },
      "geometry": {
        "type": "Point",
        "coordinates": [
          -153.9760221223129,
          44.411875152494666
        ]
      }
    },
    {
      "type": "Feature",
      "properties": {
        "norad_id": 65733,
        "name": "GHS-01",
        "group": "stations",
        "lat": -14.999388165189588,
        "lon": 62.71522358365044,
        "alt_km": 326.8438496476738,
        "timestamp": "2025-12-24T09:46:29.749589+00:00",
        "meta_object_name": "GHS-01",
        "meta_object_id": "1998-067XM",
        "meta_epoch": "2025-12-23T11:05:04.304832",
        "meta_mean_motion": 15.79591896,
        "meta_eccentricity": 0.00088003,
        "meta_inclination": 51.6283,
        "meta_ra_of_asc_node": 79.8731,
        "meta_arg_of_pericenter": 346.0913,
        "meta_mean_anomaly": 13.9844,
        "meta_ephemeris_type": 0,
        "meta_classification_type": "U",
        "meta_norad_cat_id": 65733,
        "meta_element_set_no": 999,
        "meta_rev_at_epoch": 1487,
        "meta_bstar": 0.0014327729,
        "meta_mean_motion_dot": 0.00275731,
        "meta_mean_motion_ddot": 0,
        "tle_line1": "1 65733U 98067XM  25357.46185538  .00275731  00000+0  14328-2 0  9990",
        "tle_line2": "2 65733  51.6283  79.8731 0008800 346.0913  13.9844 15.79591896 14877"
      },
      "geometry": {
        "type": "Point",
        "coordinates": [
          62.71522358365044,
          -14.999388165189588
        ]
      }
    },
    {
      "type": "Feature",
      "properties": {
        "norad_id": 65941,
        "name": "YOTSUBA-KULOVER",
        "group": "stations",
        "lat": -23.383833164864892,
        "lon": -78.6969355975651,
        "alt_km": 389.1302891474006,
        "timestamp": "2025-12-24T09:46:29.749599+00:00",
        "meta_object_name": "YOTSUBA-KULOVER",
        "meta_object_id": "1998-067XN",
        "meta_epoch": "2025-12-23T12:54:09.902304",
        "meta_mean_motion": 15.60866,
        "meta_eccentricity": 0.00021899,
        "meta_inclination": 51.6292,
        "meta_ra_of_asc_node": 85.6499,
        "meta_arg_of_pericenter": 347.5579,
        "meta_mean_anomaly": 12.536,
        "meta_ephemeris_type": 0,
        "meta_classification_type": "U",
        "meta_norad_cat_id": 65941,
        "meta_element_set_no": 999,
        "meta_rev_at_epoch": 1154,
        "meta_bstar": 0.00081748527,
        "meta_mean_motion_dot": 0.00069745,
        "meta_mean_motion_ddot": 0,
        "tle_line1": "1 65941U 98067XN  25357.53761461  .00069745  00000+0  81749-3 0  9992",
        "tle_line2": "2 65941  51.6292  85.6499 0002189 347.5579  12.5360 15.60866000 11543"
      },
      "geometry": {
        "type": "Point",
        "coordinates": [
          -78.6969355975651,
          -23.383833164864892
        ]
      }
    },
    {
      "type": "Feature",
      "properties": {
        "norad_id": 65942,
        "name": "BOTAN",
        "group": "stations",
        "lat": -14.714018943354734,
        "lon": 68.23443937175148,
        "alt_km": 372.6427171583391,
        "timestamp": "2025-12-24T09:46:29.749611+00:00",
        "meta_object_name": "BOTAN",
        "meta_object_id": "1998-067XP",
        "meta_epoch": "2025-12-23T23:07:45.899616",
        "meta_mean_motion": 15.65195853,
        "meta_eccentricity": 0.00032883,
        "meta_inclination": 51.6282,
        "meta_ra_of_asc_node": 82.4941,
        "meta_arg_of_pericenter": 330.2787,
        "meta_mean_anomaly": 29.802,
        "meta_ephemeris_type": 0,
        "meta_classification_type": "U",
        "meta_norad_cat_id": 65942,
        "meta_element_set_no": 999,
        "meta_rev_at_epoch": 1162,
        "meta_bstar": 0.0010936719,
        "meta_mean_motion_dot": 0.00111413,
        "meta_mean_motion_ddot": 0,
        "tle_line1": "1 65942U 98067XP  25357.96372569  .00111413  00000+0  10937-2 0  9997",
        "tle_line2": "2 65942  51.6282  82.4941 0003288 330.2787  29.8020 15.65195853 11620"
      },
      "geometry": {
        "type": "Point",
        "coordinates": [
          68.23443937175148,
          -14.714018943354734
        ]
      }
    },
    {
      "type": "Feature",
      "properties": {
        "norad_id": 65943,
        "name": "E-KAGAKU-1",
        "group": "stations",
        "lat": -22.96367924916956,
        "lon": -79.11208230004075,
        "alt_km": 387.97566697992534,
        "timestamp": "2025-12-24T09:46:29.749621+00:00",
        "meta_object_name": "E-KAGAKU-1",
        "meta_object_id": "1998-067XQ",
        "meta_epoch": "2025-12-22T10:46:55.533504",
        "meta_mean_motion": 15.60710313,
        "meta_eccentricity": 0.00012968,
        "meta_inclination": 51.6319,
        "meta_ra_of_asc_node": 91.1385,
        "meta_arg_of_pericenter": 295.9007,
        "meta_mean_anomaly": 64.1852,
        "meta_ephemeris_type": 0,
        "meta_classification_type": "U",
        "meta_norad_cat_id": 65943,
        "meta_element_set_no": 999,
        "meta_rev_at_epoch": 1137,
        "meta_bstar": 0.00086344374,
        "meta_mean_motion_dot": 0.00073283,
        "meta_mean_motion_ddot": 0,
        "tle_line1": "1 65943U 98067XQ  25356.44925386  .00073283  00000+0  86344-3 0  9999",
        "tle_line2": "2 65943  51.6319  91.1385 0001296 295.9007  64.1852 15.60710313 11376"
      },
      "geometry": {
        "type": "Point",
        "coordinates": [
          -79.11208230004075,
          -22.96367924916956
        ]
      }
    },
    {
      "type": "Feature",
      "properties": {
        "norad_id": 66052,
        "name": "HRC MONOBLOCK CAMERA",
        "group": "stations",
        "lat": -33.737399626704004,
        "lon": 51.349460794047175,
        "alt_km": 405.8499101601901,
        "timestamp": "2025-12-24T09:46:29.749632+00:00",
        "meta_object_name": "HRC MONOBLOCK CAMERA",
        "meta_object_id": "1998-067XR",
        "meta_epoch": "2025-12-23T23:10:15.977280",
        "meta_mean_motion": 15.54901889,
        "meta_eccentricity": 0.0002152,
        "meta_inclination": 51.6306,
        "meta_ra_of_asc_node": 85.5033,
        "meta_arg_of_pericenter": 238.968,
        "meta_mean_anomaly": 121.11,
        "meta_ephemeris_type": 0,
        "meta_classification_type": "U",
        "meta_norad_cat_id": 66052,
        "meta_element_set_no": 999,
        "meta_rev_at_epoch": 1058,
        "meta_bstar": 0.0005004,
        "meta_mean_motion_dot": 0.00033738,
        "meta_mean_motion_ddot": 0,
        "tle_line1": "1 66052U 98067XR  25357.96546270  .00033738  00000+0  50040-3 0  9995",
        "tle_line2": "2 66052  51.6306  85.5033 0002152 238.9680 121.1100 15.54901889 10582"
      },
      "geometry": {
        "type": "Point",
        "coordinates": [
          51.349460794047175,
          -33.737399626704004
        ]
      }
    }
  ]
}